[{"OBJECT_NAME":"METEOR-M2 3","OBJECT_ID":"2023-091A","EPOCH":"2026-03-09T22:59:41.369280","MEAN_MOTION":14.24037691,"ECCENTRICITY":0.000511,"INCLINATION":98.6213,"RA_OF_ASC_NODE":125.9119,"ARG_OF_PERICENTER":98.6128,"MEAN_ANOMALY":261.563,"EPHEMERIS_TYPE":0,"CLASSIFICATION_TYPE":"U","NORAD_CAT_ID":57166,"ELEMENT_SET_NO":999,"REV_AT_EPOCH":14039,"BSTAR":2.3891208e-5,"MEAN_MOTION_DOT":1.2e-7,"MEAN_MOTION_DDOT":0},{"OBJECT_NAME":"FENGYUN 1C DEB","OBJECT_ID":"1999-025LB","EPOCH":"2026-03-09T13:56:41.061120","MEAN_MOTION":14.05456563,"ECCENTRICITY":0.0128801,"INCLINATION":98.3942,"RA_OF_ASC_NODE":289.2649,"ARG_OF_PERICENTER":10.4241,"MEAN_ANOMALY":44.6486,"EPHEMERIS_TYPE":0,"CLASSIFICATION_TYPE":"U","NORAD_CAT_ID":29977,"ELEMENT_SET_NO":999,"REV_AT_EPOCH":97580,"BSTAR":0.00093383,"MEAN_MOTION_DOT":1.594e-5,"MEAN_MOTION_DDOT":0}]
